[{"OBJECT_NAME":"AMOS-17","OBJECT_ID":"2019-050A","EPOCH":"2026-04-26T20:29:32.633088","MEAN_MOTION":1.00269378,"ECCENTRICITY":0.0001404,"INCLINATION":0.0156,"RA_OF_ASC_NODE":325.5096,"ARG_OF_PERICENTER":70.9012,"MEAN_ANOMALY":142.8268,"EPHEMERIS_TYPE":0,"CLASSIFICATION_TYPE":"U","NORAD_CAT_ID":44479,"ELEMENT_SET_NO":999,"REV_AT_EPOCH":2467,"BSTAR":0,"MEAN_MOTION_DOT":9.8e-7,"MEAN_MOTION_DDOT":0}]
