AMOS-17                 
1 44479U 19050A   26116.85384992  .00000098  00000+0  00000+0 0  9992
2 44479   0.0156 325.5096 0001404  70.9012 142.8268  1.00269378 24676
